[{"OBJECT_NAME":"ONEWEB-0461","OBJECT_ID":"2022-012AD","EPOCH":"2026-03-05T02:53:40.073280","MEAN_MOTION":13.17649995,"ECCENTRICITY":0.00020279,"INCLINATION":87.9158,"RA_OF_ASC_NODE":26.5131,"ARG_OF_PERICENTER":78.5537,"MEAN_ANOMALY":281.5822,"EPHEMERIS_TYPE":0,"CLASSIFICATION_TYPE":"U","NORAD_CAT_ID":51649,"ELEMENT_SET_NO":999,"REV_AT_EPOCH":20018,"BSTAR":0.00037431212,"MEAN_MOTION_DOT":1.58e-6,"MEAN_MOTION_DDOT":0},{"OBJECT_NAME":"ONEWEB-0463","OBJECT_ID":"2022-012AE","EPOCH":"2026-03-05T04:16:18.404256","MEAN_MOTION":13.17648643,"ECCENTRICITY":0.00019916,"INCLINATION":87.9141,"RA_OF_ASC_NODE":26.535,"ARG_OF_PERICENTER":79.712,"MEAN_ANOMALY":280.4236,"EPHEMERIS_TYPE":0,"CLASSIFICATION_TYPE":"U","NORAD_CAT_ID":51650,"ELEMENT_SET_NO":999,"REV_AT_EPOCH":19997,"BSTAR":5.4968159e-5,"MEAN_MOTION_DOT":3.4e-7,"MEAN_MOTION_DDOT":0},{"OBJECT_NAME":"ONEWEB-0464","OBJECT_ID":"2022-012AF","EPOCH":"2026-03-05T06:18:50.741856","MEAN_MOTION":13.10375703,"ECCENTRICITY":0.00017518,"INCLINATION":87.8767,"RA_OF_ASC_NODE":56.9762,"ARG_OF_PERICENTER":94.8028,"MEAN_ANOMALY":265.3299,"EPHEMERIS_TYPE":0,"CLASSIFICATION_TYPE":"U","NORAD_CAT_ID":51651,"ELEMENT_SET_NO":999,"REV_AT_EPOCH":19571,"BSTAR":0.001280752,"MEAN_MOTION_DOT":4.6e-6,"MEAN_MOTION_DDOT":0},{"OBJECT_NAME":"ONEWEB-0468","OBJECT_ID":"2022-012AG","EPOCH":"2026-03-04T17:38:43.392480","MEAN_MOTION":13.10372135,"ECCENTRICITY":0.00016649,"INCLINATION":87.8765,"RA_OF_ASC_NODE":57.0762,"ARG_OF_PERICENTER":96.9092,"MEAN_ANOMALY":263.2225,"EPHEMERIS_TYPE":0,"CLASSIFICATION_TYPE":"U","NORAD_CAT_ID":51652,"ELEMENT_SET_NO":999,"REV_AT_EPOCH":19562,"BSTAR":0.0018931095,"MEAN_MOTION_DOT":6.74e-6,"MEAN_MOTION_DDOT":0},{"OBJECT_NAME":"ONEWEB-0473","OBJECT_ID":"2022-012AH","EPOCH":"2026-03-05T06:06:52.779456","MEAN_MOTION":13.10376901,"ECCENTRICITY":0.00017018,"INCLINATION":87.8768,"RA_OF_ASC_NODE":56.9739,"ARG_OF_PERICENTER":86.7276,"MEAN_ANOMALY":273.4046,"EPHEMERIS_TYPE":0,"CLASSIFICATION_TYPE":"U","NORAD_CAT_ID":51653,"ELEMENT_SET_NO":999,"REV_AT_EPOCH":19569,"BSTAR":0.00027218521,"MEAN_MOTION_DOT":1.08e-6,"MEAN_MOTION_DDOT":0},{"OBJECT_NAME":"ONEWEB-0474","OBJECT_ID":"2022-012AJ","EPOCH":"2026-03-04T22:35:06.426240","MEAN_MOTION":13.10375876,"ECCENTRICITY":0.00016712,"INCLINATION":87.8777,"RA_OF_ASC_NODE":57.0118,"ARG_OF_PERICENTER":95.2636,"MEAN_ANOMALY":264.8682,"EPHEMERIS_TYPE":0,"CLASSIFICATION_TYPE":"U","NORAD_CAT_ID":51654,"ELEMENT_SET_NO":999,"REV_AT_EPOCH":19564,"BSTAR":-0.00074714916,"MEAN_MOTION_DOT":-2.48e-6,"MEAN_MOTION_DDOT":0},{"OBJECT_NAME":"ONEWEB-0475","OBJECT_ID":"2022-012AK","EPOCH":"2026-03-05T04:33:18.929088","MEAN_MOTION":13.17647666,"ECCENTRICITY":0.00012577,"INCLINATION":87.9144,"RA_OF_ASC_NODE":26.5243,"ARG_OF_PERICENTER":94.6143,"MEAN_ANOMALY":265.5132,"EPHEMERIS_TYPE":0,"CLASSIFICATION_TYPE":"U","NORAD_CAT_ID":51655,"ELEMENT_SET_NO":999,"REV_AT_EPOCH":19999,"BSTAR":-0.00024199368,"MEAN_MOTION_DOT":-8.1e-7,"MEAN_MOTION_DDOT":0},{"OBJECT_NAME":"ONEWEB-0490","OBJECT_ID":"2022-138A","EPOCH":"2026-03-05T04:33:15.012576","MEAN_MOTION":13.19726107,"ECCENTRICITY":0.00016863,"INCLINATION":87.9244,"RA_OF_ASC_NODE":325.6809,"ARG_OF_PERICENTER":87.244,"MEAN_ANOMALY":272.8886,"EPHEMERIS_TYPE":0,"CLASSIFICATION_TYPE":"U","NORAD_CAT_ID":54113,"ELEMENT_SET_NO":999,"REV_AT_EPOCH":16311,"BSTAR":0.00013028051,"MEAN_MOTION_DOT":6.5e-7,"MEAN_MOTION_DDOT":0},{"OBJECT_NAME":"ONEWEB-0492","OBJECT_ID":"2022-138B","EPOCH":"2026-03-05T05:09:38.531520","MEAN_MOTION":13.19726516,"ECCENTRICITY":0.00018151,"INCLINATION":87.9237,"RA_OF_ASC_NODE":325.6843,"ARG_OF_PERICENTER":85.9085,"MEAN_ANOMALY":274.2255,"EPHEMERIS_TYPE":0,"CLASSIFICATION_TYPE":"U","NORAD_CAT_ID":54114,"ELEMENT_SET_NO":999,"REV_AT_EPOCH":16312,"BSTAR":0.00018999045,"MEAN_MOTION_DOT":8.9e-7,"MEAN_MOTION_DDOT":0},{"OBJECT_NAME":"ONEWEB-0495","OBJECT_ID":"2022-138C","EPOCH":"2026-03-05T04:37:47.367840","MEAN_MOTION":13.19727833,"ECCENTRICITY":0.00016769,"INCLINATION":87.9237,"RA_OF_ASC_NODE":325.69,"ARG_OF_PERICENTER":104.7455,"MEAN_ANOMALY":255.3863,"EPHEMERIS_TYPE":0,"CLASSIFICATION_TYPE":"U","NORAD_CAT_ID":54115,"ELEMENT_SET_NO":999,"REV_AT_EPOCH":16310,"BSTAR":0.00017342355,"MEAN_MOTION_DOT":8.2e-7,"MEAN_MOTION_DDOT":0},{"OBJECT_NAME":"ONEWEB-0497","OBJECT_ID":"2022-138D","EPOCH":"2026-03-05T04:55:59.505312","MEAN_MOTION":13.19726418,"ECCENTRICITY":0.00016977,"INCLINATION":87.9236,"RA_OF_ASC_NODE":325.6784,"ARG_OF_PERICENTER":81.6811,"MEAN_ANOMALY":278.4514,"EPHEMERIS_TYPE":0,"CLASSIFICATION_TYPE":"U","NORAD_CAT_ID":54116,"ELEMENT_SET_NO":999,"REV_AT_EPOCH":16309,"BSTAR":0.00035568936,"MEAN_MOTION_DOT":1.55e-6,"MEAN_MOTION_DDOT":0},{"OBJECT_NAME":"ONEWEB-0499","OBJECT_ID":"2022-138E","EPOCH":"2026-03-05T04:32:06.665856","MEAN_MOTION":13.19725663,"ECCENTRICITY":0.00014714,"INCLINATION":87.9238,"RA_OF_ASC_NODE":325.6912,"ARG_OF_PERICENTER":82.8423,"MEAN_ANOMALY":277.2877,"EPHEMERIS_TYPE":0,"CLASSIFICATION_TYPE":"U","NORAD_CAT_ID":54117,"ELEMENT_SET_NO":999,"REV_AT_EPOCH":16310,"BSTAR":0.00012284991,"MEAN_MOTION_DOT":6.2e-7,"MEAN_MOTION_DDOT":0},{"OBJECT_NAME":"ONEWEB-0500","OBJECT_ID":"2022-138F","EPOCH":"2026-03-05T04:35:31.051968","MEAN_MOTION":13.19727,"ECCENTRICITY":0.00017713,"INCLINATION":87.9238,"RA_OF_ASC_NODE":325.6805,"ARG_OF_PERICENTER":79.7978,"MEAN_ANOMALY":280.3355,"EPHEMERIS_TYPE":0,"CLASSIFICATION_TYPE":"U","NORAD_CAT_ID":54118,"ELEMENT_SET_NO":999,"REV_AT_EPOCH":16311,"BSTAR":0.0001979475,"MEAN_MOTION_DOT":9.2e-7,"MEAN_MOTION_DDOT":0},{"OBJECT_NAME":"ONEWEB-0501","OBJECT_ID":"2022-138G","EPOCH":"2026-03-05T05:18:44.944992","MEAN_MOTION":13.19726252,"ECCENTRICITY":0.00015821,"INCLINATION":87.9242,"RA_OF_ASC_NODE":325.6747,"ARG_OF_PERICENTER":92.5925,"MEAN_ANOMALY":267.5389,"EPHEMERIS_TYPE":0,"CLASSIFICATION_TYPE":"U","NORAD_CAT_ID":54119,"ELEMENT_SET_NO":999,"REV_AT_EPOCH":16309,"BSTAR":9.890844e-5,"MEAN_MOTION_DOT":5.3e-7,"MEAN_MOTION_DDOT":0},{"OBJECT_NAME":"ONEWEB-0502","OBJECT_ID":"2022-138H","EPOCH":"2026-03-05T04:58:16.076928","MEAN_MOTION":13.19726208,"ECCENTRICITY":0.00014862,"INCLINATION":87.9245,"RA_OF_ASC_NODE":325.6624,"ARG_OF_PERICENTER":85.2835,"MEAN_ANOMALY":274.8467,"EPHEMERIS_TYPE":0,"CLASSIFICATION_TYPE":"U","NORAD_CAT_ID":54120,"ELEMENT_SET_NO":999,"REV_AT_EPOCH":16311,"BSTAR":0.00021321834,"MEAN_MOTION_DOT":9.8e-7,"MEAN_MOTION_DDOT":0},{"OBJECT_NAME":"ONEWEB-0503","OBJECT_ID":"2022-138J","EPOCH":"2026-03-05T04:42:20.774592","MEAN_MOTION":13.19726331,"ECCENTRICITY":0.00014906,"INCLINATION":87.9245,"RA_OF_ASC_NODE":325.6688,"ARG_OF_PERICENTER":73.7807,"MEAN_ANOMALY":286.349,"EPHEMERIS_TYPE":0,"CLASSIFICATION_TYPE":"U","NORAD_CAT_ID":54121,"ELEMENT_SET_NO":999,"REV_AT_EPOCH":16310,"BSTAR":0.00033284481,"MEAN_MOTION_DOT":1.46e-6,"MEAN_MOTION_DDOT":0},{"OBJECT_NAME":"ONEWEB-0504","OBJECT_ID":"2022-138K","EPOCH":"2026-03-05T04:24:09.448416","MEAN_MOTION":13.19726444,"ECCENTRICITY":0.00014984,"INCLINATION":87.9241,"RA_OF_ASC_NODE":325.6818,"ARG_OF_PERICENTER":89.4954,"MEAN_ANOMALY":270.635,"EPHEMERIS_TYPE":0,"CLASSIFICATION_TYPE":"U","NORAD_CAT_ID":54122,"ELEMENT_SET_NO":999,"REV_AT_EPOCH":16311,"BSTAR":5.6286533e-5,"MEAN_MOTION_DOT":3.5e-7,"MEAN_MOTION_DDOT":0}]
