ONEWEB-0461             
1 51649U 22012AD  26064.12060270  .00000158  00000+0  37431-3 0  9992
2 51649  87.9158  26.5131 0002027  78.5537 281.5822 13.17649995200182
ONEWEB-0463             
1 51650U 22012AE  26064.17799079  .00000034  00000+0  54968-4 0  9993
2 51650  87.9141  26.5350 0001991  79.7120 280.4236 13.17648643199979
ONEWEB-0464             
1 51651U 22012AF  26064.26308729  .00000460  00000+0  12808-2 0  9990
2 51651  87.8767  56.9762 0001751  94.8028 265.3299 13.10375703195712
ONEWEB-0468             
1 51652U 22012AG  26063.73522445  .00000674  00000+0  18931-2 0  9995
2 51652  87.8765  57.0762 0001664  96.9092 263.2225 13.10372135195622
ONEWEB-0473             
1 51653U 22012AH  26064.25477754  .00000108  00000+0  27219-3 0  9998
2 51653  87.8768  56.9739 0001701  86.7276 273.4046 13.10376901195697
ONEWEB-0474             
1 51654U 22012AJ  26063.94104660 -.00000248  00000+0 -74715-3 0  9997
2 51654  87.8777  57.0118 0001671  95.2636 264.8682 13.10375876195647
ONEWEB-0475             
1 51655U 22012AK  26064.18980242 -.00000081  00000+0 -24199-3 0  9999
2 51655  87.9144  26.5243 0001257  94.6143 265.5132 13.17647666199999
ONEWEB-0490             
1 54113U 22138A   26064.18975709  .00000065  00000+0  13028-3 0  9991
2 54113  87.9244 325.6809 0001686  87.2440 272.8886 13.19726107163119
ONEWEB-0492             
1 54114U 22138B   26064.21502930  .00000089  00000+0  18999-3 0  9996
2 54114  87.9237 325.6843 0001815  85.9085 274.2255 13.19726516163125
ONEWEB-0495             
1 54115U 22138C   26064.19290935  .00000082  00000+0  17342-3 0  9997
2 54115  87.9237 325.6900 0001676 104.7455 255.3863 13.19727833163102
ONEWEB-0497             
1 54116U 22138D   26064.20554983  .00000155  00000+0  35569-3 0  9998
2 54116  87.9236 325.6784 0001697  81.6811 278.4514 13.19726418163099
ONEWEB-0499             
1 54117U 22138E   26064.18896604  .00000062  00000+0  12285-3 0  9992
2 54117  87.9238 325.6912 0001471  82.8423 277.2877 13.19725663163109
ONEWEB-0500             
1 54118U 22138F   26064.19133162  .00000092  00000+0  19795-3 0  9993
2 54118  87.9238 325.6805 0001771  79.7978 280.3355 13.19727000163118
ONEWEB-0501             
1 54119U 22138G   26064.22135353  .00000053  00000+0  98908-4 0  9993
2 54119  87.9242 325.6747 0001582  92.5925 267.5389 13.19726252163093
ONEWEB-0502             
1 54120U 22138H   26064.20713052  .00000098  00000+0  21322-3 0  9995
2 54120  87.9245 325.6624 0001486  85.2835 274.8467 13.19726208163116
ONEWEB-0503             
1 54121U 22138J   26064.19607378  .00000146  00000+0  33284-3 0  9991
2 54121  87.9245 325.6688 0001490  73.7807 286.3490 13.19726331163103
ONEWEB-0504             
1 54122U 22138K   26064.18344269  .00000035  00000+0  56287-4 0  9994
2 54122  87.9241 325.6818 0001498  89.4954 270.6350 13.19726444163117
